STARLINK-31684          
1 59492U 24071J   26067.81379809 -.00003934  00000+0 -13350-3 0  9994
2 59492  42.9980 352.3031 0000637 257.0512 103.0268 15.27581574107988
FLOCK 4G-14             
1 62667U 25009BL  26068.75869712  .00011310  00000+0  42676-3 0  9993
2 62667  97.4064 151.1836 0003006 318.3639  41.7371 15.27197201 63711
